[{"OBJECT_NAME":"STARLINK-32700","OBJECT_ID":"2024-239L","EPOCH":"2026-03-09T15:11:01.523328","MEAN_MOTION":15.30183799,"ECCENTRICITY":0.0001212,"INCLINATION":53.161,"RA_OF_ASC_NODE":181.5169,"ARG_OF_PERICENTER":59.4537,"MEAN_ANOMALY":300.6583,"EPHEMERIS_TYPE":0,"CLASSIFICATION_TYPE":"U","NORAD_CAT_ID":62311,"ELEMENT_SET_NO":999,"REV_AT_EPOCH":6954,"BSTAR":0.0011327,"MEAN_MOTION_DOT":0.00033323,"MEAN_MOTION_DDOT":0},{"OBJECT_NAME":"KSLV-II R\/B","OBJECT_ID":"2023-072H","EPOCH":"2026-03-09T20:13:26.441760","MEAN_MOTION":15.33109439,"ECCENTRICITY":0.00241884,"INCLINATION":97.4991,"RA_OF_ASC_NODE":274.152,"ARG_OF_PERICENTER":318.2938,"MEAN_ANOMALY":41.646,"EPHEMERIS_TYPE":0,"CLASSIFICATION_TYPE":"U","NORAD_CAT_ID":56750,"ELEMENT_SET_NO":999,"REV_AT_EPOCH":15516,"BSTAR":0.00028309532,"MEAN_MOTION_DOT":9.057e-5,"MEAN_MOTION_DDOT":0}]
